COMMENT,ORIGINATOR,NORAD_CAT_ID,OBJECT_NAME,OBJECT_TYPE,CLASSIFICATION_TYPE,INTLDES,EPOCH,EPOCH_MICROSECONDS,MEAN_MOTION,ECCENTRICITY,INCLINATION,RA_OF_ASC_NODE,ARG_OF_PERICENTER,MEAN_ANOMALY,EPHEMERIS_TYPE,ELEMENT_SET_NO,REV_AT_EPOCH,BSTAR,MEAN_MOTION_DOT,MEAN_MOTION_DDOT,FILE,TLE_LINE0,TLE_LINE1,TLE_LINE2,OBJECT_ID,OBJECT_NUMBER,SEMIMAJOR_AXIS,PERIOD,APOGEE,PERIGEE,DECAYED
"GENERATED VIA SPACETRACK.ORG API","18 SPCS","48883","SPACEBEE-100","PAYLOAD","U","21059E","2022-01-21 21:40:26","479200","15.13031919","0.0007839","97.5355","152.769","245.5602","114.4811","0","999","3175","0.00027112","0.00004728","0","3279606","0 SPACEBEE-100","1 48883U 21059E   22021.90308425  .00004728  00000-0  27112-3 0  9993","2 48883  97.5355 152.7690 0007839 245.5602 114.4811 15.13031919 31757","2021-059E","48883","6905.097","95.173","532.375","521.549","0"
"GENERATED VIA SPACETRACK.ORG API","18 SPCS","48883","SPACEBEE-100","PAYLOAD","U","21059E","2022-01-22 02:26:08","486304","15.13034115","0.0007834","97.5354","152.9651","244.7512","115.2907","0","999","3178","0.00027853","0.00004859","0","3280062","0 SPACEBEE-100","1 48883U 21059E   22022.10148711  .00004859  00000-0  27853-3 0  9993","2 48883  97.5354 152.9651 0007834 244.7512 115.2907 15.13034115 31780","2021-059E","48883","6905.090","95.173","532.365","521.546","0"
"GENERATED VIA SPACETRACK.ORG API","18 SPCS","48883","SPACEBEE-100","PAYLOAD","U","21059E","2022-01-22 21:28:56","278848","15.13041635","0.0007843","97.5354","153.7493","241.5196","118.5245","0","999","3190","0.00026176","0.00004564","0","3280371","0 SPACEBEE-100","1 48883U 21059E   22022.89509582  .00004564  00000-0  26176-3 0  9996","2 48883  97.5354 153.7493 0007843 241.5196 118.5245 15.13041635 31906","2021-059E","48883","6905.067","95.173","532.348","521.517","0"
"GENERATED VIA SPACETRACK.ORG API","18 SPCS","48883","SPACEBEE-100","PAYLOAD","U","21059E","2022-01-23 03:49:52","124448","15.13045498","0.000783","97.5354","154.0108","240.3107","119.7345","0","999","3194","0.00029104","0.00005082","0","3280552","0 SPACEBEE-100","1 48883U 21059E   22023.15963107  .00005082  00000-0  29104-3 0  9993","2 48883  97.5354 154.0108 0007830 240.3107 119.7345 15.13045498 31947","2021-059E","48883","6905.056","95.172","532.327","521.514","0"
"GENERATED VIA SPACETRACK.ORG API","18 SPCS","48883","SPACEBEE-100","PAYLOAD","U","21059E","2022-01-23 08:35:33","990720","15.13047191","0.0007833","97.5354","154.2069","239.5049","120.5409","0","999","3197","0.00028113","0.00004907","0","3280923","0 SPACEBEE-100","1 48883U 21059E   22023.35803230  .00004907  00000-0  28113-3 0  9999","2 48883  97.5354 154.2069 0007833 239.5049 120.5409 15.13047191 31979","2021-059E","48883","6905.050","95.172","532.324","521.507","0"
"GENERATED VIA SPACETRACK.ORG API","18 SPCS","48883","SPACEBEE-100","PAYLOAD","U","21059E","2022-01-23 21:17:25","548864","15.13050075","0.0007862","97.5353","154.7297","237.2493","122.7981","0","999","3205","0.0002276","0.0000396","0","3281238","0 SPACEBEE-100","1 48883U 21059E   22023.88710126  .00003960  00000-0  22760-3 0  9998","2 48883  97.5353 154.7297 0007862 237.2493 122.7981 15.13050075 32050","2021-059E","48883","6905.042","95.172","532.335","521.478","0"
"GENERATED VIA SPACETRACK.ORG API","18 SPCS","48883","SPACEBEE-100","PAYLOAD","U","21059E","2022-01-24 08:24:03","68064","15.13053471","0.000788","97.5352","155.1872","235.4353","124.6135","0","999","3212","0.00021064","0.0000366","0","3281595","0 SPACEBEE-100","1 48883U 21059E   22024.35003551  .00003660  00000-0  21064-3 0  9991","2 48883  97.5352 155.1872 0007880 235.4353 124.6135 15.13053471 32121","2021-059E","48883","6905.031","95.172","532.338","521.455","0"
"GENERATED VIA SPACETRACK.ORG API","18 SPCS","48883","SPACEBEE-100","PAYLOAD","U","21059E","2022-01-24 08:24:03","68064","15.13053471","0.000788","97.5352","155.1872","235.4353","124.6135","0","999","3212","0.00021064","0.0000366","0","3281820","0 SPACEBEE-100","1 48883U 21059E   22024.35003551  .00003660  00000-0  21064-3 0  9991","2 48883  97.5352 155.1872 0007880 235.4353 124.6135 15.13053471 32121","2021-059E","48883","6905.031","95.172","532.338","521.455","0"
"GENERATED VIA SPACETRACK.ORG API","18 SPCS","48883","SPACEBEE-100","PAYLOAD","U","21059E","2022-01-24 21:05:54","370464","15.13057304","0.00079","97.5351","155.71","233.2511","126.7995","0","999","3220","0.00018671","0.00003237","0","3282614","0 SPACEBEE-100","1 48883U 21059E   22024.87910151  .00003237  00000-0  18671-3 0  9991","2 48883  97.5351 155.7100 0007900 233.2511 126.7995 15.13057304 32200","2021-059E","48883","6905.020","95.172","532.340","521.430","0"
"GENERATED VIA SPACETRACK.ORG API","18 SPCS","48883","SPACEBEE-100","PAYLOAD","U","21059E","2022-01-25 08:12:31","676256","15.13061772","0.0007923","97.5349","156.1675","231.5292","128.5228","0","999","3227","0.00020565","0.00003573","0","3283407","0 SPACEBEE-100","1 48883U 21059E   22025.34203329  .00003573  00000-0  20565-3 0  9994","2 48883  97.5349 156.1675 0007923 231.5292 128.5228 15.13061772 32271","2021-059E","48883","6905.006","95.171","532.342","521.400","0"
"GENERATED VIA SPACETRACK.ORG API","18 SPCS","48883","SPACEBEE-100","PAYLOAD","U","21059E","2022-01-25 22:29:36","598560","15.13068086","0.0007964","97.5348","156.7558","229.2296","130.8245","0","999","3236","0.00023649","0.0000412","0","3283711","0 SPACEBEE-100","1 48883U 21059E   22025.93722915  .00004120  00000-0  23649-3 0  9991","2 48883  97.5348 156.7558 0007964 229.2296 130.8245 15.13068086 32369","2021-059E","48883","6904.987","95.171","532.351","521.353","0"
"GENERATED VIA SPACETRACK.ORG API","18 SPCS","48883","SPACEBEE-100","PAYLOAD","U","21059E","2022-01-26 00:04:50","463840","15.13068795","0.000797","97.5348","156.8211","229.0392","131.015","0","999","3237","0.00024049","0.00004191","0","3283900","0 SPACEBEE-100","1 48883U 21059E   22026.00336185  .00004191  00000-0  24049-3 0  9993","2 48883  97.5348 156.8211 0007970 229.0392 131.0150 15.13068795 32374","2021-059E","48883","6904.985","95.171","532.353","521.346","0"
"GENERATED VIA SPACETRACK.ORG API","18 SPCS","48883","SPACEBEE-100","PAYLOAD","U","21059E","2022-01-26 08:00:59","778144","15.13071393","0.0008","97.5347","157.1479","227.8575","132.1977","0","999","3242","0.00023387","0.00004074","0","3284266","0 SPACEBEE-100","1 48883U 21059E   22026.33402521  .00004074  00000-0  23387-3 0  9991","2 48883  97.5347 157.1479 0008000 227.8575 132.1977 15.13071393 32420","2021-059E","48883","6904.977","95.171","532.366","521.318","0"
"GENERATED VIA SPACETRACK.ORG API","18 SPCS","48883","SPACEBEE-100","PAYLOAD","U","21059E","2022-01-26 22:18:04","430016","15.13076113","0.0008045","97.5347","157.7362","225.479","134.5784","0","999","3251","0.00022671","0.00003948","0","3284696","0 SPACEBEE-100","1 48883U 21059E   22026.92921794  .00003948  00000-0  22671-3 0  9998","2 48883  97.5347 157.7362 0008045 225.4790 134.5784 15.13076113 32516","2021-059E","48883","6904.963","95.170","532.383","521.272","0"
"GENERATED VIA SPACETRACK.ORG API","18 SPCS","48883","SPACEBEE-100","PAYLOAD","U","21059E","2022-01-27 01:28:32","103552","15.13077341","0.0008053","97.5347","157.8669","225.1543","134.9035","0","999","3253","0.00023098","0.00004023","0","3284833","0 SPACEBEE-100","1 48883U 21059E   22027.06148268  .00004023  00000-0  23098-3 0  9990","2 48883  97.5347 157.8669 0008053 225.1543 134.9035 15.13077341 32538","2021-059E","48883","6904.959","95.170","532.384","521.263","0"
"GENERATED VIA SPACETRACK.ORG API","18 SPCS","48883","SPACEBEE-100","PAYLOAD","U","21059E","2022-01-27 07:49:27","412608","15.13080189","0.0008076","97.5347","158.1284","224.1985","135.8602","0","999","3257","0.00024027","0.00004188","0","3284946","0 SPACEBEE-100","1 48883U 21059E   22027.32601172  .00004188  00000-0  24027-3 0  9992","2 48883  97.5347 158.1284 0008076 224.1985 135.8602 15.13080189 32577","2021-059E","48883","6904.950","95.170","532.392","521.239","0"
"GENERATED VIA SPACETRACK.ORG API","18 SPCS","48883","SPACEBEE-100","PAYLOAD","U","21059E","2022-01-27 22:06:31","766400","15.13085693","0.0008126","97.5347","158.7167","222.0462","138.0146","0","999","3266","0.00024857","0.00004336","0","3285556","0 SPACEBEE-100","1 48883U 21059E   22027.92120100  .00004336  00000-0  24857-3 0  9991","2 48883  97.5347 158.7167 0008126 222.0462 138.0146 15.13085693 32669","2021-059E","48883","6904.933","95.170","532.409","521.187","0"
"GENERATED VIA SPACETRACK.ORG API","18 SPCS","48883","SPACEBEE-100","PAYLOAD","U","21059E","2022-01-28 02:52:13","169568","15.13087597","0.0008142","97.5347","158.9128","221.4164","138.6451","0","999","3269","0.00025392","0.00004431","0","3285633","0 SPACEBEE-100","1 48883U 21059E   22028.11959687  .00004431  00000-0  25392-3 0  9994","2 48883  97.5347 158.9128 0008142 221.4164 138.6451 15.13087597 32691","2021-059E","48883","6904.928","95.170","532.415","521.171","0"
"GENERATED VIA SPACETRACK.ORG API","18 SPCS","48883","SPACEBEE-100","PAYLOAD","U","21059E","2022-01-28 07:37:54","550272","15.1308961","0.0008162","97.5347","159.1088","220.7155","139.3467","0","999","3272","0.0002572","0.00004489","0","3285972","0 SPACEBEE-100","1 48883U 21059E   22028.31799248  .00004489  00000-0  25720-3 0  9999","2 48883  97.5347 159.1088 0008162 220.7155 139.3467 15.13089610 32720","2021-059E","48883","6904.921","95.170","532.422","521.151","0"
"GENERATED VIA SPACETRACK.ORG API","18 SPCS","48883","SPACEBEE-100","PAYLOAD","U","21059E","2022-01-28 20:19:44","788224","15.13094551","0.0008203","97.5349","159.6318","218.6516","141.4128","0","999","3280","0.00025486","0.00004449","0","3286235","0 SPACEBEE-100","1 48883U 21059E   22028.84704616  .00004449  00000-0  25486-3 0  9997","2 48883  97.5349 159.6318 0008203 218.6516 141.4128 15.13094551 32803","2021-059E","48883","6904.906","95.169","532.436","521.107","0"
